[{"OBJECT_NAME":"HORYU-4","OBJECT_ID":"2016-012D","EPOCH":"2026-03-28T20:34:56.596800","MEAN_MOTION":15.66645055,"ECCENTRICITY":0.00055457,"INCLINATION":30.991,"RA_OF_ASC_NODE":293.5854,"ARG_OF_PERICENTER":336.7446,"MEAN_ANOMALY":23.2957,"EPHEMERIS_TYPE":0,"CLASSIFICATION_TYPE":"U","NORAD_CAT_ID":41340,"ELEMENT_SET_NO":999,"REV_AT_EPOCH":55811,"BSTAR":0.0010961283,"MEAN_MOTION_DOT":0.00121486,"MEAN_MOTION_DDOT":0},{"OBJECT_NAME":"RAVAN","OBJECT_ID":"2016-067B","EPOCH":"2026-03-29T04:16:35.311008","MEAN_MOTION":15.47787502,"ECCENTRICITY":0.0004288,"INCLINATION":98.0014,"RA_OF_ASC_NODE":328.9294,"ARG_OF_PERICENTER":284.2231,"MEAN_ANOMALY":75.8541,"EPHEMERIS_TYPE":0,"CLASSIFICATION_TYPE":"U","NORAD_CAT_ID":41849,"ELEMENT_SET_NO":999,"REV_AT_EPOCH":51529,"BSTAR":0.0010486,"MEAN_MOTION_DOT":0.00054618,"MEAN_MOTION_DDOT":0},{"OBJECT_NAME":"CELTEE 1","OBJECT_ID":"2016-067C","EPOCH":"2026-03-29T02:51:07.838208","MEAN_MOTION":15.18843587,"ECCENTRICITY":0.0002079,"INCLINATION":98.0792,"RA_OF_ASC_NODE":309.2216,"ARG_OF_PERICENTER":116.0091,"MEAN_ANOMALY":244.1356,"EPHEMERIS_TYPE":0,"CLASSIFICATION_TYPE":"U","NORAD_CAT_ID":41850,"ELEMENT_SET_NO":999,"REV_AT_EPOCH":51372,"BSTAR":0.00031599,"MEAN_MOTION_DOT":6.507e-5,"MEAN_MOTION_DDOT":0},{"OBJECT_NAME":"OPTICUBE 04","OBJECT_ID":"2016-067D","EPOCH":"2026-03-29T03:13:58.357344","MEAN_MOTION":15.09298317,"ECCENTRICITY":0.0016384,"INCLINATION":98.0793,"RA_OF_ASC_NODE":296.2169,"ARG_OF_PERICENTER":32.7265,"MEAN_ANOMALY":327.4974,"EPHEMERIS_TYPE":0,"CLASSIFICATION_TYPE":"U","NORAD_CAT_ID":41851,"ELEMENT_SET_NO":999,"REV_AT_EPOCH":51309,"BSTAR":0.00019812,"MEAN_MOTION_DOT":3.095e-5,"MEAN_MOTION_DDOT":0},{"OBJECT_NAME":"AEROCUBE 8D","OBJECT_ID":"2016-067E","EPOCH":"2026-03-29T02:37:13.132128","MEAN_MOTION":15.23219376,"ECCENTRICITY":0.0004705,"INCLINATION":98.0809,"RA_OF_ASC_NODE":312.2065,"ARG_OF_PERICENTER":63.978,"MEAN_ANOMALY":296.1938,"EPHEMERIS_TYPE":0,"CLASSIFICATION_TYPE":"U","NORAD_CAT_ID":41852,"ELEMENT_SET_NO":999,"REV_AT_EPOCH":51387,"BSTAR":0.00040824,"MEAN_MOTION_DOT":9.589e-5,"MEAN_MOTION_DDOT":0},{"OBJECT_NAME":"AEROCUBE 8C","OBJECT_ID":"2016-067F","EPOCH":"2026-03-29T03:31:09.812640","MEAN_MOTION":15.23453275,"ECCENTRICITY":0.000499,"INCLINATION":98.068,"RA_OF_ASC_NODE":309.5799,"ARG_OF_PERICENTER":353.4066,"MEAN_ANOMALY":6.7102,"EPHEMERIS_TYPE":0,"CLASSIFICATION_TYPE":"U","NORAD_CAT_ID":41853,"ELEMENT_SET_NO":999,"REV_AT_EPOCH":51387,"BSTAR":0.00048883,"MEAN_MOTION_DOT":0.00011582,"MEAN_MOTION_DDOT":0},{"OBJECT_NAME":"CORVUS BC2","OBJECT_ID":"2017-042X","EPOCH":"2026-03-29T04:47:06.609984","MEAN_MOTION":15.0575991,"ECCENTRICITY":0.0013648,"INCLINATION":97.3976,"RA_OF_ASC_NODE":252.7246,"ARG_OF_PERICENTER":31.1066,"MEAN_ANOMALY":329.0966,"EPHEMERIS_TYPE":0,"CLASSIFICATION_TYPE":"U","NORAD_CAT_ID":42846,"ELEMENT_SET_NO":999,"REV_AT_EPOCH":47502,"BSTAR":0.00041316,"MEAN_MOTION_DOT":5.937e-5,"MEAN_MOTION_DDOT":0},{"OBJECT_NAME":"CORVUS BC1","OBJECT_ID":"2017-042Y","EPOCH":"2026-03-29T04:52:39.277632","MEAN_MOTION":15.05957284,"ECCENTRICITY":0.0012041,"INCLINATION":97.4007,"RA_OF_ASC_NODE":253.4886,"ARG_OF_PERICENTER":8.8167,"MEAN_ANOMALY":351.3269,"EPHEMERIS_TYPE":0,"CLASSIFICATION_TYPE":"U","NORAD_CAT_ID":42847,"ELEMENT_SET_NO":999,"REV_AT_EPOCH":47505,"BSTAR":0.00036449,"MEAN_MOTION_DOT":5.256e-5,"MEAN_MOTION_DDOT":0},{"OBJECT_NAME":"MAKERSAT 0","OBJECT_ID":"2017-073D","EPOCH":"2026-03-29T03:34:41.621376","MEAN_MOTION":15.28660568,"ECCENTRICITY":0.0114547,"INCLINATION":97.4757,"RA_OF_ASC_NODE":330.2014,"ARG_OF_PERICENTER":196.2216,"MEAN_ANOMALY":163.5346,"EPHEMERIS_TYPE":0,"CLASSIFICATION_TYPE":"U","NORAD_CAT_ID":43016,"ELEMENT_SET_NO":999,"REV_AT_EPOCH":45422,"BSTAR":0.00083345,"MEAN_MOTION_DOT":0.00028308,"MEAN_MOTION_DDOT":0},{"OBJECT_NAME":"SIRION PATHFINDER-2","OBJECT_ID":"2018-099B","EPOCH":"2026-03-29T02:05:29.868000","MEAN_MOTION":15.137664,"ECCENTRICITY":0.0008177,"INCLINATION":97.4354,"RA_OF_ASC_NODE":139.0555,"ARG_OF_PERICENTER":207.821,"MEAN_ANOMALY":152.2585,"EPHEMERIS_TYPE":0,"CLASSIFICATION_TYPE":"U","NORAD_CAT_ID":43759,"ELEMENT_SET_NO":999,"REV_AT_EPOCH":40050,"BSTAR":0.00038636,"MEAN_MOTION_DOT":6.91e-5,"MEAN_MOTION_DDOT":0},{"OBJECT_NAME":"CORVUS BC4","OBJECT_ID":"2018-099K","EPOCH":"2026-03-29T02:52:19.652160","MEAN_MOTION":15.11814967,"ECCENTRICITY":0.000667,"INCLINATION":97.4177,"RA_OF_ASC_NODE":133.4436,"ARG_OF_PERICENTER":278.7629,"MEAN_ANOMALY":81.2846,"EPHEMERIS_TYPE":0,"CLASSIFICATION_TYPE":"U","NORAD_CAT_ID":43767,"ELEMENT_SET_NO":999,"REV_AT_EPOCH":40030,"BSTAR":0.00033642,"MEAN_MOTION_DOT":5.687e-5,"MEAN_MOTION_DDOT":0},{"OBJECT_NAME":"M2 PATHFINDER","OBJECT_ID":"2020-037E","EPOCH":"2026-03-29T00:52:40.447200","MEAN_MOTION":15.04301131,"ECCENTRICITY":0.0013136,"INCLINATION":97.8173,"RA_OF_ASC_NODE":278.373,"ARG_OF_PERICENTER":67.7349,"MEAN_ANOMALY":292.5268,"EPHEMERIS_TYPE":0,"CLASSIFICATION_TYPE":"U","NORAD_CAT_ID":45727,"ELEMENT_SET_NO":999,"REV_AT_EPOCH":31344,"BSTAR":0.00018523,"MEAN_MOTION_DOT":2.52e-5,"MEAN_MOTION_DDOT":0},{"OBJECT_NAME":"NETSAT-4","OBJECT_ID":"2020-068U","EPOCH":"2026-03-28T22:40:01.343136","MEAN_MOTION":15.41129712,"ECCENTRICITY":0.0003856,"INCLINATION":97.8641,"RA_OF_ASC_NODE":89.9005,"ARG_OF_PERICENTER":233.084,"MEAN_ANOMALY":127.0052,"EPHEMERIS_TYPE":0,"CLASSIFICATION_TYPE":"U","NORAD_CAT_ID":46504,"ELEMENT_SET_NO":999,"REV_AT_EPOCH":30340,"BSTAR":0.00051869,"MEAN_MOTION_DOT":0.00021425,"MEAN_MOTION_DDOT":0},{"OBJECT_NAME":"NETSAT-3","OBJECT_ID":"2020-068V","EPOCH":"2026-03-28T22:49:56.563968","MEAN_MOTION":15.39832152,"ECCENTRICITY":0.00033,"INCLINATION":97.8678,"RA_OF_ASC_NODE":88.2356,"ARG_OF_PERICENTER":259.9692,"MEAN_ANOMALY":100.118,"EPHEMERIS_TYPE":0,"CLASSIFICATION_TYPE":"U","NORAD_CAT_ID":46505,"ELEMENT_SET_NO":999,"REV_AT_EPOCH":30332,"BSTAR":0.00057709,"MEAN_MOTION_DOT":0.00022851,"MEAN_MOTION_DDOT":0},{"OBJECT_NAME":"NETSAT-1","OBJECT_ID":"2020-068W","EPOCH":"2026-03-28T22:46:27.278112","MEAN_MOTION":15.32635068,"ECCENTRICITY":0.0003316,"INCLINATION":97.8751,"RA_OF_ASC_NODE":83.4654,"ARG_OF_PERICENTER":300.5126,"MEAN_ANOMALY":59.5787,"EPHEMERIS_TYPE":0,"CLASSIFICATION_TYPE":"U","NORAD_CAT_ID":46506,"ELEMENT_SET_NO":999,"REV_AT_EPOCH":30300,"BSTAR":0.00054101,"MEAN_MOTION_DOT":0.00016986,"MEAN_MOTION_DDOT":0},{"OBJECT_NAME":"NETSAT-2","OBJECT_ID":"2020-068X","EPOCH":"2026-03-28T18:02:49.253280","MEAN_MOTION":15.42511584,"ECCENTRICITY":0.00017662,"INCLINATION":97.8652,"RA_OF_ASC_NODE":89.3419,"ARG_OF_PERICENTER":289.5614,"MEAN_ANOMALY":70.5441,"EPHEMERIS_TYPE":0,"CLASSIFICATION_TYPE":"U","NORAD_CAT_ID":46507,"ELEMENT_SET_NO":999,"REV_AT_EPOCH":30332,"BSTAR":0.00063295735,"MEAN_MOTION_DOT":0.00027413,"MEAN_MOTION_DDOT":0},{"OBJECT_NAME":"GREENCUBE (IO-117)","OBJECT_ID":"2022-080E","EPOCH":"2026-03-29T00:45:25.599456","MEAN_MOTION":6.42583202,"ECCENTRICITY":0.0009006,"INCLINATION":70.1557,"RA_OF_ASC_NODE":326.1322,"ARG_OF_PERICENTER":307.1724,"MEAN_ANOMALY":52.8113,"EPHEMERIS_TYPE":0,"CLASSIFICATION_TYPE":"U","NORAD_CAT_ID":53109,"ELEMENT_SET_NO":999,"REV_AT_EPOCH":8691,"BSTAR":0,"MEAN_MOTION_DOT":-3.0e-8,"MEAN_MOTION_DDOT":0}]
