HORYU-4                 
1 41340U 16012D   26087.85759950  .00121486  00000+0  10961-2 0  9993
2 41340  30.9910 293.5854 0005545 336.7446  23.2957 15.66645055558115
RAVAN                   
1 41849U 16067B   26088.17818647  .00054618  00000+0  10486-2 0  9996
2 41849  98.0014 328.9294 0004288 284.2231  75.8541 15.47787502515299
CELTEE 1                
1 41850U 16067C   26088.11884072  .00006507  00000+0  31599-3 0  9990
2 41850  98.0792 309.2216 0002079 116.0091 244.1356 15.18843587513727
OPTICUBE 04             
1 41851U 16067D   26088.13470321  .00003095  00000+0  19812-3 0  9994
2 41851  98.0793 296.2169 0016384  32.7265 327.4974 15.09298317513098
AEROCUBE 8D             
1 41852U 16067E   26088.10917977  .00009589  00000+0  40824-3 0  9996
2 41852  98.0809 312.2065 0004705  63.9780 296.1938 15.23219376513875
AEROCUBE 8C             
1 41853U 16067F   26088.14664135  .00011582  00000+0  48883-3 0  9995
2 41853  98.0680 309.5799 0004990 353.4066   6.7102 15.23453275513872
CORVUS BC2              
1 42846U 17042X   26088.19938206  .00005937  00000+0  41316-3 0  9991
2 42846  97.3976 252.7246 0013648  31.1066 329.0966 15.05759910475029
CORVUS BC1              
1 42847U 17042Y   26088.20323238  .00005256  00000+0  36449-3 0  9992
2 42847  97.4007 253.4886 0012041   8.8167 351.3269 15.05957284475054
MAKERSAT 0              
1 43016U 17073D   26088.14909284  .00028308  00000+0  83345-3 0  9999
2 43016  97.4757 330.2014 0114547 196.2216 163.5346 15.28660568454229
SIRION PATHFINDER-2     
1 43759U 18099B   26088.08715125  .00006910  00000+0  38636-3 0  9992
2 43759  97.4354 139.0555 0008177 207.8210 152.2585 15.13766400400503
CORVUS BC4              
1 43767U 18099K   26088.11967190  .00005687  00000+0  33642-3 0  9998
2 43767  97.4177 133.4436 0006670 278.7629  81.2846 15.11814967400307
M2 PATHFINDER           
1 45727U 20037E   26088.03657925  .00002520  00000+0  18523-3 0  9998
2 45727  97.8173 278.3730 0013136  67.7349 292.5268 15.04301131313440
NETSAT-4                
1 46504U 20068U   26087.94445999  .00021425  00000+0  51869-3 0  9996
2 46504  97.8641  89.9005 0003856 233.0840 127.0052 15.41129712303409
NETSAT-3                
1 46505U 20068V   26087.95134912  .00022851  00000+0  57709-3 0  9991
2 46505  97.8678  88.2356 0003300 259.9692 100.1180 15.39832152303328
NETSAT-1                
1 46506U 20068W   26087.94892683  .00016986  00000+0  54101-3 0  9992
2 46506  97.8751  83.4654 0003316 300.5126  59.5787 15.32635068303006
NETSAT-2                
1 46507U 20068X   26087.75195895  .00027413  00000+0  63296-3 0  9995
2 46507  97.8652  89.3419 0001766 289.5614  70.5441 15.42511584303328
GREENCUBE (IO-117)      
1 53109U 22080E   26088.03154629 -.00000003  00000+0  00000+0 0  9996
2 53109  70.1557 326.1322 0009006 307.1724  52.8113  6.42583202 86919
